{"type":"Topology","arcs":[[[90968,18700],[-4418,2162],[56,605],[-447,634],[-39,653],[-281,534],[-496,222],[-388,-230],[-1053,-43],[-434,-283],[-1235,453],[-666,-243],[-1270,354],[-500,356],[-888,-34],[-345,-194],[-415,-731],[-471,142],[-1272,1484],[-878,619],[-447,552],[-570,339],[18,928],[-931,294],[-556,362]],[[73042,27635],[-83,-72]],[[72959,27563],[-35,-74]],[[72924,27489],[-24,-234]],[[72900,27255],[-17,-39]],[[72883,27216],[-14,-25]],[[72869,27191],[-144,-107]],[[72725,27084],[-133,-29]],[[72592,27055],[-26,-26]],[[72566,27029],[-122,81]],[[72444,27110],[11,24]],[[72455,27134],[18,114]],[[72473,27248],[-54,104]],[[72419,27352],[-83,131]],[[72336,27483],[-197,853]],[[72139,28336],[-133,23]],[[72006,28359],[-237,353]],[[71769,28712],[-5,28]],[[71764,28740],[-123,119]],[[71641,28859],[-42,13]],[[71599,28872],[-18,-1]],[[71581,28871],[-99,-10]],[[71482,28861],[-191,212]],[[71291,29073],[-73,1]],[[71218,29074],[-107,-45]],[[71111,29029],[-62,1]],[[71049,29030],[-48,-46]],[[71001,28984],[-7,61]],[[70994,29045],[-94,-1]],[[70900,29044],[-343,35]],[[70557,29079],[-171,7]],[[70386,29086],[-181,-146]],[[70205,28940],[-4,-40]],[[70201,28900],[-209,-57]],[[69992,28843],[-184,39]],[[69808,28882],[-637,271]],[[69171,29153],[-32,18]],[[69139,29171],[-328,37]],[[68811,29208],[-96,102]],[[68715,29310],[-2,16],[-9,15328]],[[68704,44654],[19739,0],[344,511],[881,723],[1301,-57],[775,233],[423,-402],[725,108],[641,-328],[655,-604],[295,-729],[376,686],[1151,138],[82,537],[-216,649],[1415,649],[558,-176],[1051,272]],[[98900,46864],[141,30]],[[99041,46894],[244,85]],[[99285,46979],[147,7]],[[99432,46986],[360,175]],[[99792,47161],[207,-1417],[-23,-614],[-359,-536],[-322,-2001],[-316,-1470],[-434,-1046],[-107,-710],[253,-580],[-308,-888],[-71,-802],[-500,-1023],[-467,-662],[-20,-1268],[-506,-255],[-405,-716],[-920,-376],[-810,-1213],[31,-281],[-792,-1755],[9,-417],[-604,-702],[-226,-1337],[-890,-1639],[-203,-736],[-610,-1093],[-4,-1147],[-605,-1976],[313,-986],[-135,-815]],[[89536,25369],[-690,594],[-776,-564],[-101,-1031],[698,-833],[73,1020],[321,735],[475,79]],[[68621,17019],[20,1812],[-27,5228],[43,5287]],[[68657,29346],[58,-36]],[[68715,29310],[96,-102]],[[69139,29171],[32,-18]],[[69808,28882],[184,-39]],[[70201,28900],[4,40]],[[70386,29086],[171,-7]],[[70900,29044],[94,1]],[[71001,28984],[48,46]],[[71111,29029],[107,45]],[[71218,29074],[73,-1]],[[71482,28861],[99,10]],[[71599,28872],[42,-13]],[[71641,28859],[123,-119]],[[71764,28740],[5,-28]],[[72006,28359],[133,-23]],[[72336,27483],[83,-131]],[[72473,27248],[-18,-114]],[[72444,27110],[122,-81]],[[72592,27055],[133,29]],[[72869,27191],[14,25]],[[72900,27255],[24,234]],[[72924,27489],[35,74]],[[72959,27563],[83,72]],[[90968,18700],[-590,-244],[-629,-581],[-2965,-109],[-1243,-440],[-774,-600],[-1471,-1473],[-1101,-199],[87,-660],[-1387,134],[-460,694],[-304,-104],[-429,744],[-553,172],[-804,-301],[-89,331],[664,681],[-368,869],[-1419,-650],[76,-634],[-973,-592],[-494,-663],[-702,-497],[-796,273],[-2134,1272],[-563,-128],[-1001,422],[-831,-354],[-444,606],[-650,350]],[[99432,46986],[-147,-7]],[[99041,46894],[-141,-30]],[[68704,44654],[0,9162]],[[68704,53816],[-7441,-1]],[[61263,53815],[5,28842]],[[61268,82657],[433,-432],[626,-278],[498,28],[1016,-440],[296,-357],[198,-886],[593,-248],[421,-419],[1108,-562],[1241,380],[728,658],[214,1258],[573,848],[566,1884],[-99,377],[215,1380],[456,1510],[-181,447],[-161,1130],[182,1176],[-327,725],[139,891],[416,1024],[-267,732],[445,549],[160,513],[-583,273],[541,1558],[327,314],[441,1761],[15,1181],[954,367],[683,-650],[182,-1714],[-29,-574],[838,-509],[-265,-1058],[484,-212],[359,-637],[-151,-557],[349,-462],[87,-1195],[160,-247],[-164,-1014],[370,-793],[160,-972],[344,-455],[359,3],[416,433],[792,527],[335,-585],[-80,-357],[722,-423],[283,-553],[486,-267],[67,-1628],[283,-926],[3,-617],[284,-471],[-179,-1090],[439,-774],[566,-678],[652,-1481],[189,-775],[-330,-1820],[520,-772],[278,-87],[-161,-1017],[449,-652],[1063,-702],[441,145],[185,-460],[759,-43],[293,-395],[278,-848],[1361,-390],[250,-549],[649,-188],[580,-378],[-251,-529],[38,-676],[703,-840],[357,-26],[390,-1081],[-102,-376],[526,-283],[-138,-535],[413,-1634],[627,-411],[519,865],[293,-695],[1631,-988],[-212,-1357],[319,-1292],[368,-60],[28,-157],[208,-146],[127,-441],[972,-675],[504,-71],[435,-549],[508,-1179],[793,-578],[45,-471],[586,-913],[439,-34],[19,-1365],[632,-676],[-249,-1109],[193,-1117],[-238,-885],[65,-1052],[474,-520],[470,-1828],[209,-287]],[[98343,55105],[251,698],[-54,516],[820,518],[-699,-2021],[-318,289]],[[65512,82700],[-426,129],[-584,-720],[-355,353],[353,444],[605,221],[407,-427]],[[38948,36452],[2,17358],[29754,6]],[[68704,53816],[9,-24417],[-56,-53]],[[68621,17019],[-752,-17],[-711,499],[-318,646],[-1009,1111],[-424,1113],[429,359],[20,586],[-485,1299],[-1100,1426],[-814,602],[-430,133],[-466,-395],[-906,-46],[-73,314],[777,626],[227,1870],[-662,795],[-405,1031],[-532,-1124],[-56,-826],[-565,-1191],[-532,214],[-617,-425],[-578,330],[180,721],[1102,26],[121,2279],[232,796],[846,1094],[-307,706],[587,524],[-607,1118],[-911,-1231],[-202,-876],[-477,-766],[-914,-345],[-1083,-812],[-761,-1250],[-307,-151],[-364,-857],[-401,-296],[-678,689],[118,381],[-314,1636],[-222,433],[-842,782],[-101,893],[-247,470],[-927,-76],[-335,568],[-101,883],[282,459],[-682,208],[-368,760],[-437,466],[-1311,-217],[-773,590],[-574,144],[-978,-284],[-1097,937],[-1512,783],[-850,-433],[-1317,97],[-1853,-149],[-1306,-197]],[[61600,23776],[-822,-28],[-850,-685],[-818,125],[-925,-48],[-558,529],[135,389],[1196,244],[605,274],[509,-50],[192,-426],[1015,27],[321,-351]],[[38948,87738],[0,-51286]],[[38948,36452],[-890,-500],[-1538,-680],[-2006,-618],[-1341,-98],[-1164,233],[-626,-178],[-1039,-790],[-1254,-548],[-708,-522],[-861,-150],[-725,-692],[-311,-1167],[-998,-1005],[-797,-335],[-419,385],[-1783,-128],[-515,-306],[-386,563],[-523,-244],[-604,248],[-2364,-178],[-389,-261],[-978,148],[-475,-142],[-628,-503],[-888,-1164],[-690,198],[-592,-628],[-700,-317],[-107,-353],[-550,-194],[-563,-574],[-793,47],[-749,291],[-1384,8],[-274,-112],[-984,524],[-574,132],[-711,909],[-806,599],[-741,4],[-237,269],[-121,1693],[132,195],[991,79],[628,1016],[-180,1857],[344,62],[68,1381],[-220,1648],[-607,1147],[-318,930],[-632,1412],[-256,1408],[106,1694],[-311,1150],[-582,730],[-101,812],[-678,1155],[-368,372],[-172,795],[143,438],[-146,622],[-797,1752],[-493,786],[-713,827],[223,572],[429,-429],[204,-812],[598,339],[-6,528],[-745,727],[-411,1136],[275,357],[487,-567],[31,-671],[529,-395],[63,-609],[589,-90],[54,1515],[-600,872],[-466,1320],[-338,410],[-106,845],[-537,799],[-41,794],[199,993],[354,816],[347,314],[158,1895],[-368,849],[810,2299],[381,27],[-170,-878],[243,-608],[501,-268],[181,712],[484,1109],[804,530],[1155,431],[780,749],[410,627],[1343,781],[711,614],[378,-313],[699,329],[414,-364],[885,125],[587,655],[634,433],[697,-35],[868,234],[412,723],[557,252],[872,-359],[540,298],[1012,181],[1950,894],[566,472],[746,1136],[629,1651],[1502,1332],[-410,522],[-136,1800],[361,879],[481,454],[223,477],[384,-47],[111,588],[517,622],[20,-793],[1363,-2527],[195,825],[340,339],[87,536],[-551,875],[26,1406],[462,-19],[268,-563],[300,276],[1022,-282],[-33,573],[449,515],[-422,417],[167,1178],[446,430],[545,106],[42,573],[807,565],[-178,540],[336,530],[1828,510],[282,549],[-249,416],[130,532],[569,-539],[615,-221],[496,365],[-48,789],[582,92],[322,-559],[594,116],[2019,-2445],[-127,-1531],[809,1213],[602,50],[799,-255]],[[78017,7847],[-354,385],[397,701],[1208,-305],[2297,-1062],[1016,27],[997,489],[993,-55],[480,400],[724,11],[188,371],[655,-304],[242,-2366],[-195,-1433],[-565,-452],[-128,-1344],[-264,-517],[-1087,-182],[-793,-1133],[-438,-976],[-534,-102],[-324,332],[-1312,-85],[-1129,1770],[-216,-12],[-553,1103],[-224,2040],[-653,688],[-651,1831],[223,180]],[[86895,10451],[-609,-185],[-518,1104],[201,540],[742,-722],[184,-737]],[[76489,11289],[-652,-559],[-77,1225],[658,139],[71,-805]],[[61263,53815],[-22317,-5],[2,33928]],[[38948,87738],[1194,-188],[412,325],[-432,1048],[-292,206],[375,976],[529,275],[3,505],[441,1066],[598,127],[244,533],[-307,361],[62,704],[489,132],[34,671],[418,-102],[257,960],[524,-115],[440,316],[82,550],[437,-257],[1143,-176],[487,214],[472,-271],[476,397],[912,268],[64,597],[-491,1319],[-965,-206],[-517,709],[66,261],[1167,178],[933,-1130],[224,349],[458,-85],[352,-822],[424,-207],[1246,-208],[1067,-598],[589,-132],[694,359],[176,-465],[531,-462],[524,118],[322,436],[1163,-234],[391,-490],[25,-471],[491,24],[301,776],[-213,447],[655,224],[169,-643],[745,-580],[-788,-1144],[-38,-890],[-279,-505],[-553,211],[-775,-345],[-196,-909],[185,-552],[-82,-1325],[-224,-153],[-1014,-1508],[122,-565],[1225,-1032],[780,-510],[125,-476],[622,-509],[468,-590],[790,31],[647,-497],[1043,-449],[673,-953]],[[58696,89917],[-69,-383],[-1104,164],[-136,1057],[631,446],[364,-300],[-341,-829],[655,-155]],[[42423,98466],[477,227],[344,-297],[631,143],[745,445],[632,-788],[-519,-693],[-954,-796],[-1132,870],[-224,889]],[[41953,97402],[-140,674],[449,527],[412,-1561],[-721,360]]],"transform":{"scale":[0.0004032171821718217,0.00032772586725867266],"translate":[113.296693,-43.633410999999995]},"objects":{"states":{"type":"GeometryCollection","geometries":[{"arcs":[[0,1,2,3,4,5,6,7,8,9,10,11,12,13,14,15,16,17,18,19,20,21,22,23,24,25,26,27,28,29,30,31,32,33,34,35,36,37,38,39,40,41,42,43,44,45],[46]],"type":"Polygon","properties":{"STATE_CODE":"1","STATE_NAME":"New South Wales","STATE":"NSW"},"id":0},{"arcs":[[47,48,49,-38,50,-36,51,-34,52,-32,53,-30,54,-28,55,-26,56,57,-23,58,-21,59,60,61,-17,62,-15,63,-13,64,-11,65,-9,66,-7,67,-5,68,69,70,-1,71]],"type":"Polygon","properties":{"STATE_CODE":"2","STATE_NAME":"Victoria","STATE":"VIC"},"id":1},{"arcs":[[[-45,72,-43,73,-41,74,75,76,77]],[[78]],[[79]]],"type":"MultiPolygon","properties":{"STATE_CODE":"3","STATE_NAME":"Queensland","STATE":"QLD"},"id":2},{"arcs":[[[80,81,-48,82]],[[83]]],"type":"MultiPolygon","properties":{"STATE_CODE":"4","STATE_NAME":"South Australia","STATE":"SA"},"id":3},{"arcs":[[84,85]],"type":"Polygon","properties":{"STATE_CODE":"5","STATE_NAME":"Western Australia","STATE":"WA"},"id":4},{"arcs":[[[86]],[[87]],[[88]]],"type":"MultiPolygon","properties":{"STATE_CODE":"6","STATE_NAME":"Tasmania","STATE":"TAS"},"id":5},{"arcs":[[[-77,89,90]],[[91]],[[92]],[[93]]],"type":"MultiPolygon","properties":{"STATE_CODE":"7","STATE_NAME":"Northern Territory","STATE":"NT"},"id":6},{"arcs":[[-47]],"type":"Polygon","properties":{"STATE_CODE":"8","STATE_NAME":"Australian Capital Territory","STATE":"ACT"},"id":7}]}}}